{
  "norad_id": 46715,
  "name": "STARLINK-1817",
  "history": [
    {
      "epoch": "2026-03-28T08:45:23.872896",
      "apogee_km": 375.7151504484218,
      "perigee_km": 367.3482611207319,
      "latitude_deg": -10.85616629520201,
      "longitude_deg": -33.473474560072646,
      "semi_major_axis_km": 6749.668705784577,
      "eccentricity": 0.0006198,
      "inclination_deg": 53.0469,
      "raan_deg": 125.8186,
      "arg_perigee_deg": 353.5529,
      "mean_anomaly_deg": 6.5405,
      "mean_motion_rev_day": 15.65593742
    }
  ]
}