{"fetched_at":"2026-03-30T13:17:50Z","count":15418,"tles":[{"name":"STARLINK-1817","line1":"1 46715U 20073AX  26087.36485964  .00083676  00000+0  81318-3 0  9996","line2":"2 46715  53.0469 125.8186 0006198 353.5529   6.5405 15.65593742300391","category":"Starlink"}]}